H1 CPF  1  DLR 2022 02 06 10  5372 technosat            
H2  1704205 6203    42829 2022 02 06 00 00 00 2022 02 13 00 00 00    60 1 1  0 0 0
H9
10 0 59617  43200.000000  0       -462856.241       -944182.208       6873005.261
10 0 59617  43260.000000  0       -711590.552       -559757.176       6893787.620
10 0 59617  43320.000000  0       -953933.996       -170818.025       6885227.547
10 0 59617  43380.000000  0      -1188830.655        220931.050       6847362.369
10 0 59617  43440.000000  0      -1415271.094        613765.067       6780353.800
10 0 59617  43500.000000  0      -1632296.724       1005945.903       6684487.256
10 0 59617  43560.000000  0      -1839003.923       1395730.041       6560170.687
10 0 59617  43620.000000  0      -2034547.863       1781376.403       6407932.888
10 0 59617  43680.000000  0      -2218146.005       2161154.188       6228421.319
10 0 59617  43740.000000  0      -2389081.286       2533350.762       6022399.463
10 0 59617  43800.000000  0      -2546704.962       2896279.509       5790743.644
10 0 59617  43860.000000  0      -2690439.118       3248287.559       5534439.431
10 0 59617  43920.000000  0      -2819778.896       3587763.511       5254577.577
10 0 59617  43980.000000  0      -2934294.303       3913145.006       4952349.410
10 0 59617  44040.000000  0      -3033631.629       4222926.099       4629041.812
10 0 59617  44100.000000  0      -3117514.500       4515664.448       4286031.758
10 0 59617  44160.000000  0      -3185744.537       4789988.269       3924780.441
10 0 59617  44220.000000  0      -3238201.616       5044602.979       3546826.964
10 0 59617  44280.000000  0      -3274843.706       5278297.504       3153781.666
10 0 59617  44340.000000  0      -3295706.320       5489950.205       2747319.129
10 0 59617  44400.000000  0      -3300901.595       5678534.399       2329170.871
10 0 59617  44460.000000  0      -3290616.974       5843123.419       1901117.773
10 0 59617  44520.000000  0      -3265113.492       5982895.243       1464982.335
10 0 59617  44580.000000  0      -3224723.697       6097136.696       1022620.698
10 0 59617  44640.000000  0      -3169849.212       6185247.095        575914.480
10 0 59617  44700.000000  0      -3100957.951       6246741.344        126762.487
10 0 59617  44760.000000  0      -3018581.044       6281252.448       -322927.641
10 0 59617  44820.000000  0      -2923309.454       6288533.467       -771247.821
10 0 59617  44880.000000  0      -2815790.277       6268458.876      -1216297.932
10 0 59617  44940.000000  0      -2696722.737       6221025.270      -1656194.217
10 0 59617  45000.000000  0      -2566853.896       6146351.313      -2089077.434
10 0 59617  45060.000000  0      -2426974.233       6044677.241      -2513120.702
10 0 59617  45120.000000  0      -2277913.071       5916363.835      -2926537.214
10 0 59617  45180.000000  0      -2120533.877       5761890.872      -3327587.727
10 0 59617  45240.000000  0      -1955729.451       5581854.991      -3714587.862
10 0 59617  45300.000000  0      -1784417.025       5376966.948      -4085915.054
10 0 59617  45360.000000  0      -1607533.326       5148048.414      -4440015.113
10 0 59617  45420.000000  0      -1426029.627       4896028.337      -4775408.437
10 0 59617  45480.000000  0      -1240866.813       4621938.901      -5090695.901
10 0 59617  45540.000000  0      -1053010.448       4326911.023      -5384564.391
10 0 59617  45600.000000  0       -863425.897       4012169.437      -5655791.957
10 0 59617  45660.000000  0       -673073.500       3679027.377      -5903252.539
10 0 59617  45720.000000  0       -482903.862       3328880.897      -6125920.260
10 0 59617  45780.000000  0       -293853.255       2963202.859      -6322873.247
10 0 59617  45840.000000  0       -106839.202       2583536.677      -6493296.982
10 0 59617  45900.000000  0         77243.788       2191489.882      -6636487.270
10 0 59617  45960.000000  0        257528.297       1788727.411      -6751852.873
10 0 59617  46020.000000  0        433177.922       1376964.624      -6838917.679
10 0 59617  46080.000000  0        603391.016        957960.163      -6897322.374
10 0 59617  46140.000000  0        767404.200        533508.695      -6926825.742
10 0 59617  46200.000000  0        924495.657        105433.420      -6927305.576
10 0 59617  46260.000000  0       1073988.180       -324421.544      -6898759.058
10 0 59617  46320.000000  0       1215251.980       -754198.795      -6841302.728
10 0 59617  46380.000000  0       1347707.248      -1182035.354      -6755172.062
10 0 59617  46440.000000  0       1470826.447      -1606070.435      -6640720.660
10 0 59617  46500.000000  0       1584136.404      -2024453.241      -6498419.043
10 0 59617  46560.000000  0       1687220.133      -2435350.794      -6328853.007
10 0 59617  46620.000000  0       1779718.351      -2836955.771      -6132721.584
10 0 59617  46680.000000  0       1861330.739      -3227494.383      -5910834.618
10 0 59617  46740.000000  0       1931816.916      -3605234.244      -5664109.788
10 0 59617  46800.000000  0       1990997.124      -3968492.049      -5393569.129
10 0 59617  46860.000000  0       2038752.601      -4315641.053      -5100335.153
10 0 59617  46920.000000  0       2075025.672      -4645118.392      -4785626.622
10 0 59617  46980.000000  0       2099819.550      -4955432.255      -4450753.918
10 0 59617  47040.000000  0       2113197.838      -5245168.867      -4097113.994
10 0 59617  47100.000000  0       2115283.718      -5512999.227      -3726184.884
10 0 59617  47160.000000  0       2106258.821      -5757685.517      -3339519.817
10 0 59617  47220.000000  0       2086361.820      -5978087.177      -2938740.968
10 0 59617  47280.000000  0       2055886.713      -6173166.645      -2525532.854
10 0 59617  47340.000000  0       2015180.781      -6341994.624      -2101635.291
10 0 59617  47400.000000  0       1964642.272      -6483754.784      -1668836.103
10 0 59617  47460.000000  0       1904717.877      -6597748.119      -1228963.721
10 0 59617  47520.000000  0       1835899.988      -6683396.938       -783879.296
10 0 59617  47580.000000  0       1758723.621      -6740247.973       -335468.522
10 0 59617  47640.000000  0       1673763.061      -6767974.848        114366.467
10 0 59617  47700.000000  0       1581628.406      -6766380.168        563715.239
10 0 59617  47760.000000  0       1482961.907      -6735397.097       1010667.455
10 0 59617  47820.000000  0       1378434.077      -6675090.184       1453321.394
10 0 59617  47880.000000  0       1268739.703      -6585655.356       1889792.434
10 0 59617  47940.000000  0       1154593.760      -6467419.303       2318221.298
10 0 59617  48000.000000  0       1036727.194      -6320838.353       2736782.268
10 0 59617  48060.000000  0        915882.600      -6146496.618       3143691.245
10 0 59617  48120.000000  0        792809.901      -5945103.546       3537213.567
10 0 59617  48180.000000  0        668262.031      -5717490.872       3915671.609
10 0 59617  48240.000000  0        542990.640      -5464609.003       4277452.085
10 0 59617  48300.000000  0        417741.808      -5187522.835       4621013.102
10 0 59617  48360.000000  0        293251.812      -4887406.975       4944890.855
10 0 59617  48420.000000  0        170243.017      -4565540.466       5247705.901
10 0 59617  48480.000000  0         49419.909      -4223301.069       5528169.075
10 0 59617  48540.000000  0        -68534.743      -3862159.041       5785087.018
10 0 59617  48600.000000  0       -182963.577      -3483670.472       6017367.192
10 0 59617  48660.000000  0       -293238.159      -3089470.284       6224022.389
10 0 59617  48720.000000  0       -398762.316      -2681264.953       6404174.745
10 0 59617  48780.000000  0       -498975.245      -2260824.989       6557059.348
10 0 59617  48840.000000  0       -593354.391      -1829977.106       6682027.398
10 0 59617  48900.000000  0       -681418.102      -1390596.169       6778548.887
10 0 59617  48960.000000  0       -762728.034       -944596.875       6846214.807
10 0 59617  49020.000000  0       -836891.313       -493925.265       6884738.827
10 0 59617  49080.000000  0       -903562.435        -40550.117       6893958.418
10 0 59617  49140.000000  0       -962444.870        413545.742       6873835.508
10 0 59617  49200.000000  0      -1013292.372        866374.225       6824456.611
10 0 59617  49260.000000  0      -1055910.001       1315950.757       6746032.428
10 0 59617  49320.000000  0      -1090154.862       1760303.052       6638896.991
10 0 59617  49380.000000  0      -1115936.565       2197479.875       6503506.272
10 0 59617  49440.000000  0      -1133217.378       2625559.683       6340436.302
10 0 59617  49500.000000  0      -1142012.124       3042659.206       6150380.827
10 0 59617  49560.000000  0      -1142387.773       3446941.914       5934148.415
10 0 59617  49620.000000  0      -1134462.699       3836626.224       5692659.067
10 0 59617  49680.000000  0      -1118405.653       4209993.516       5426940.439
10 0 59617  49740.000000  0      -1094434.499       4565395.960       5138123.570
10 0 59617  49800.000000  0      -1062814.696       4901264.051       4827438.127
10 0 59617  49860.000000  0      -1023857.464       5216113.846       4496207.156
10 0 59617  49920.000000  0       -977917.644       5508553.720       4145841.355
10 0 59617  49980.000000  0       -925391.355       5777290.636       3777833.096
10 0 59617  50040.000000  0       -866713.500       6021136.158       3393750.190
10 0 59617  50100.000000  0       -802355.054       6239012.152       2995229.140
10 0 59617  50160.000000  0       -732820.043       6429955.883       2583967.845
10 0 59617  50220.000000  0       -658642.279       6593124.334       2161718.098
10 0 59617  50280.000000  0       -580381.993       6727798.060       1730277.983
10 0 59617  50340.000000  0       -498622.323       6833384.495       1291483.974
99
